ONEWEB-0207             
1 48242U 21031AJ  25250.78120737  .00000132  00000+0  32046-3 0  9999
2 48242  87.9087 345.9102 0002035 102.5913 257.5444 13.14502450211196
ONEWEB-0208             
1 48243U 21031AK  25250.76297416 -.00000218  00000+0 -62299-3 0  9997
2 48243  87.9091 345.9285 0001730 105.5492 254.5829 13.14503401211203
ONEWEB-0200             
1 48244U 21031AL  25250.80262896  .00000088  00000+0  20174-3 0  9996
2 48244  87.9087 345.9111 0001802 103.3188 256.8143 13.14502771211130
ONEWEB-0217             
1 48245U 21031AM  25250.81846748 -.00000170  00000+0 -49178-3 0  9991
2 48245  87.9096 345.8939 0001640 108.8408 251.2900 13.14501635211085
ONEWEB-0211             
1 48767U 21045A   25250.91866131 -.00000007  00000+0 -51711-4 0  9990
2 48767  87.9051 315.4526 0001564  96.6583 263.4725 13.16084377207315
ONEWEB-0223             
1 48768U 21045B   25250.71634983  .00000156  00000+0  38018-3 0  9994
2 48768  87.9042 315.5457 0001403  92.3437 267.7854 13.15548359207261
ONEWEB-0230             
1 48769U 21045C   25250.91600383 -.00000080  00000+0 -24606-3 0  9990
2 48769  87.9036 315.5397 0001978  94.6728 265.4629 13.15548710207551
ONEWEB-0237             
1 48770U 21045D   25250.90490683 -.00000124  00000+0 -36388-3 0  9990
2 48770  87.9051 315.5361 0001644  92.4288 267.7031 13.15547706207273
